{
  "last_updated": "2025-12-15T06:00:02.698399",
  "satellites": {
    "98592": {
      "name": "DUTHSat-2",
      "norad_id": "98592",
      "tle": "1 64530U 25135C   25348.87244561  .00009637  00000-0  42957-3 0  9998\n2 64530  97.4496 100.7806 0006033 110.5017 249.6867 15.21611887 26851",
      "epoch": "2025-12-14T20:56:19.300704",
      "fetched_at": "2025-12-15T06:00:02.791120",
      "source": "satnogs"
    },
    "98530": {
      "name": "LAMARR",
      "norad_id": "98530",
      "tle": "1 98530U          25347.73388765 +.00013933 +00000+0 +70959-3 0 00265\n2 98530  97.4379  59.4589 0005991 307.9048  52.1643 15.16890816002278",
      "epoch": "2025-12-13T17:36:47.892960",
      "fetched_at": "2025-12-15T06:00:02.829255",
      "source": "satnogs"
    },
    "98529": {
      "name": "DIRAC",
      "norad_id": "98529",
      "tle": "1 98529U          25347.73147675 +.00018431 +00000+0 +92937-3 0 00220\n2 98529  97.4354  59.4574 0005135 314.5342  45.5472 15.17182455002274",
      "epoch": "2025-12-13T17:33:19.591200",
      "fetched_at": "2025-12-15T06:00:02.878749",
      "source": "satnogs"
    },
    "98518": {
      "name": "MICE-1",
      "norad_id": "98518",
      "tle": "1 98518U 25276Z   25345.50761227  .00000000  00000-0  85911-3 0 00002\n2 98518  97.4491  57.2978 0004401 288.2412 177.0173 15.17054724 01824",
      "epoch": "2025-12-11T12:10:57.700128",
      "fetched_at": "2025-12-15T06:00:02.915293",
      "source": "satnogs"
    }
  },
  "fetch_log": [
    {
      "norad_id": "98592",
      "name": "DUTHSat-2",
      "status": "success",
      "source": "satnogs",
      "timestamp": "2025-12-15T06:00:02.791132"
    },
    {
      "norad_id": "98530",
      "name": "LAMARR",
      "status": "success",
      "source": "satnogs",
      "timestamp": "2025-12-15T06:00:02.829258"
    },
    {
      "norad_id": "98529",
      "name": "DIRAC",
      "status": "success",
      "source": "satnogs",
      "timestamp": "2025-12-15T06:00:02.878753"
    },
    {
      "norad_id": "98518",
      "name": "MICE-1",
      "status": "success",
      "source": "satnogs",
      "timestamp": "2025-12-15T06:00:02.915305"
    }
  ]
}